NORAD_CAT_ID,OBJECT_NAME,OBJECT_TYPE,EPOCH,MEAN_MOTION,ECCENTRICITY,INCLINATION,RA_OF_ASC_NODE,ARG_OF_PERICENTER,MEAN_ANOMALY,BSTAR,MEAN_MOTION_DOT,MEAN_MOTION_DDOT,TLE_LINE0,TLE_LINE1,TLE_LINE2,SEMIMAJOR_AXIS,PERIOD,APOGEE,PERIGEE,DECAYED
53574.0,STARLINK-4559,PAYLOAD,2023-06-04 13:13:52,15.08840115,6.03e-05,53.2164,264.0307,97.9713,262.1347,0.00018519,2.661e-05,0.0,0 STARLINK-4559,1 53574U 22101AZ  23155.55130250  .00002661  00000-0  18519-3 0  9999,2 53574  53.2164 264.0307 0000603  97.9713 262.1347 15.08840115 44101,6917.88,95.438,540.162,539.328,0.0
53574.0,STARLINK-4559,PAYLOAD,2023-06-04 14:49:15,15.08843189,6.08e-05,53.2164,263.7333,96.9919,263.1142,0.00022594,3.31e-05,0.0,0 STARLINK-4559,1 53574U 22101AZ  23155.61754116  .00003310  00000-0  22594-3 0  9999,2 53574  53.2164 263.7333 0000608  96.9919 263.1142 15.08843189 44117,6917.871,95.437,540.156,539.315,0.0
53574.0,STARLINK-4559,PAYLOAD,2023-06-05 06:43:06,15.08843497,6.9e-05,53.2159,260.7596,83.6866,276.4205,6.6552e-05,7.72e-06,0.0,0 STARLINK-4559,1 53574U 22101AZ  23156.27994065  .00000772  00000-0  66552-4 0  9993,2 53574  53.2159 260.7596 0000690  83.6866 276.4205 15.08843497 44214,6917.87,95.437,540.212,539.257,0.0
53574.0,STARLINK-4559,PAYLOAD,2023-06-05 13:04:39,15.08848616,5.43e-05,53.2161,259.5703,93.5988,266.5066,9.8843e-05,1.286e-05,0.0,0 STARLINK-4559,1 53574U 22101AZ  23156.54489722  .00001286  00000-0  98843-4 0  9991,2 53574  53.2161 259.5703 0000543  93.5988 266.5066 15.08848616 44252,6917.854,95.437,540.095,539.343,0.0
53574.0,STARLINK-4559,PAYLOAD,2023-06-05 14:40:02,15.08850201,5.57e-05,53.216,259.2729,92.932,267.1736,0.00012001,1.623e-05,0.0,0 STARLINK-4559,1 53574U 22101AZ  23156.61113629  .00001623  00000-0  12001-3 0  9995,2 53574  53.2160 259.2729 0000557  92.9320 267.1736 15.08850201 44269,6917.849,95.437,540.1,539.329,0.0
53574.0,STARLINK-4559,PAYLOAD,2023-06-06 11:20:03,15.08844136,6.92e-05,53.2159,255.4079,76.7846,283.3224,-0.00015263,-2.716e-05,0.0,0 STARLINK-4559,1 53574U 22101AZ  23157.47225848 -.00002716  00000-0 -15263-3 0  9996,2 53574  53.2159 255.4079 0000692  76.7846 283.3224 15.08844136 44392,6917.868,95.437,540.211,539.254,0.0
53574.0,STARLINK-4559,PAYLOAD,2023-06-06 17:41:35,15.08848475,5.03e-05,53.2167,254.2183,94.5041,265.6009,0.00011309,1.513e-05,0.0,0 STARLINK-4559,1 53574U 22101AZ  23157.73721381  .00001513  00000-0  11309-3 0  9997,2 53574  53.2167 254.2183 0000503  94.5041 265.6009 15.08848475 44439,6917.854,95.437,540.067,539.372,0.0
53574.0,STARLINK-4559,PAYLOAD,2023-06-07 06:24:41,15.08836552,5.45e-05,53.2172,251.84,66.1607,293.9442,3.1444e-05,2.13e-06,0.0,0 STARLINK-4559,1 53574U 22101AZ  23158.26714449  .00000213  00000-0  31444-4 0  9992,2 53574  53.2172 251.8400 0000545  66.1607 293.9442 15.08836552 44516,6917.891,95.438,540.133,539.379,0.0
53574.0,STARLINK-4559,PAYLOAD,2023-06-07 14:21:36,15.08841342,8.98e-05,53.2172,250.3562,33.517,326.5879,6.5201e-05,7.5e-06,0.0,0 STARLINK-4559,1 53574U 22101AZ  23158.59834144  .00000750  00000-0  65201-4 0  9997,2 53574  53.2172 250.3562 0000898  33.5170 326.5879 15.08841342 44568,6917.876,95.437,540.363,539.12,0.0
53574.0,STARLINK-4559,PAYLOAD,2023-06-08 09:26:14,15.0883596,8.75e-05,53.2161,246.7822,118.1334,241.9747,5.5653e-05,5.98e-06,0.0,0 STARLINK-4559,1 53574U 22101AZ  23159.39322521  .00000598  00000-0  55653-4 0  9997,2 53574  53.2161 246.7822 0000875 118.1334 241.9747 15.08835960 44687,6917.893,95.438,540.363,539.152,0.0
53574.0,STARLINK-4559,PAYLOAD,2023-06-08 11:01:37,15.08836486,8.43e-05,53.2162,246.485,116.9117,243.1961,5.6629e-05,6.14e-06,0.0,0 STARLINK-4559,1 53574U 22101AZ  23159.45946507  .00000614  00000-0  56629-4 0  9993,2 53574  53.2162 246.4850 0000843 116.9117 243.1961 15.08836486 44693,6917.891,95.438,540.339,539.173,0.0
53574.0,STARLINK-4559,PAYLOAD,2023-06-09 12:27:46,15.08861589,4.34e-05,53.216,241.7297,82.5105,277.5937,-8.6904e-05,-1.671e-05,0.0,0 STARLINK-4559,1 53574U 22101AZ  23160.51929363 -.00001671  00000-0 -86904-4 0  9998,2 53574  53.2160 241.7297 0000434  82.5105 277.5937 15.08861589 44859,6917.814,95.436,539.98,539.379,0.0
53574.0,STARLINK-4559,PAYLOAD,2023-06-10 04:21:39,15.08842263,4.26e-05,53.2162,238.7586,109.4186,250.6853,7.9469e-05,9.78e-06,0.0,0 STARLINK-4559,1 53574U 22101AZ  23161.18170571  .00000978  00000-0  79469-4 0  9996,2 53574  53.2162 238.7586 0000426 109.4186 250.6853 15.08842263 44955,6917.873,95.437,540.033,539.444,0.0
53574.0,STARLINK-4559,PAYLOAD,2023-06-10 12:18:35,15.08835285,5.21e-05,53.2165,237.2702,102.0509,258.0542,4.6141e-05,4.47e-06,0.0,0 STARLINK-4559,1 53574U 22101AZ  23161.51291048  .00000447  00000-0  46141-4 0  9998,2 53574  53.2165 237.2702 0000521 102.0509 258.0542 15.08835285 45006,6917.895,95.438,540.12,539.399,0.0
53574.0,STARLINK-4559,PAYLOAD,2023-06-10 21:50:54,15.08838612,6.83e-05,53.2166,235.4856,62.1213,297.9848,6.8869e-05,8.09e-06,0.0,0 STARLINK-4559,1 53574U 22101AZ  23161.91034856  .00000809  00000-0  68869-4 0  9997,2 53574  53.2166 235.4856 0000683  62.1213 297.9848 15.08838612 45068,6917.885,95.438,540.222,539.277,0.0
53574.0,STARLINK-4559,PAYLOAD,2023-06-11 13:44:46,15.08816764,7.58e-05,53.217,232.5124,100.2096,259.8982,0.0003276,4.927e-05,0.0,0 STARLINK-4559,1 53574U 22101AZ  23162.57275550  .00004927  00000-0  32760-3 0  9993,2 53574  53.2170 232.5124 0000758 100.2096 259.8982 15.08816764 45166,6917.951,95.439,540.341,539.292,0.0
53574.0,STARLINK-4559,PAYLOAD,2023-06-11 21:41:41,15.08839198,6.09e-05,53.2169,231.0252,86.3074,273.7988,9.6246e-05,1.244e-05,0.0,0 STARLINK-4559,1 53574U 22101AZ  23162.90394782  .00001244  00000-0  96246-4 0  9998,2 53574  53.2169 231.0252 0000609  86.3074 273.7988 15.08839198 45218,6917.883,95.438,540.169,539.327,0.0
53574.0,STARLINK-4559,PAYLOAD,2023-06-12 21:32:27,15.08842501,5.75e-05,53.2166,226.5642,72.9148,287.1907,8.4041e-05,1.05e-05,0.0,0 STARLINK-4559,1 53574U 22101AZ  23163.89754543  .00001050  00000-0  84041-4 0  9997,2 53574  53.2166 226.5642 0000575  72.9148 287.1907 15.08842501 45360,6917.873,95.437,540.136,539.34,0.0
53574.0,STARLINK-4559,PAYLOAD,2023-06-13 21:23:15,15.08837505,6.13e-05,53.2168,222.104,66.9679,293.1377,2.3541e-05,8.7e-07,0.0,0 STARLINK-4559,1 53574U 22101AZ  23164.89115096  .00000087  00000-0  23541-4 0  9999,2 53574  53.2168 222.1040 0000613  66.9679 293.1377 15.08837505 45514,6917.888,95.438,540.177,539.329,0.0
53574.0,STARLINK-4559,PAYLOAD,2023-06-13 22:58:38,15.08841606,4.7e-05,53.2153,221.8035,85.7647,274.3399,5.0688e-05,5.19e-06,0.0,0 STARLINK-4559,1 53574U 22101AZ  23164.95738696  .00000519  00000-0  50688-4 0  9995,2 53574  53.2153 221.8035 0000470  85.7647 274.3399 15.08841606 45526,6917.875,95.437,540.066,539.415,0.0
53574.0,STARLINK-4559,PAYLOAD,2023-06-14 03:44:47,15.08846371,5.94e-05,53.2157,220.9122,78.3546,281.7512,-2.6272e-05,-7.06e-06,0.0,0 STARLINK-4559,1 53574U 22101AZ  23165.15610644 -.00000706  00000-0 -26272-4 0  9992,2 53574  53.2157 220.9122 0000594  78.3546 281.7512 15.08846371 45556,6917.861,95.437,540.137,539.315,0.0
53574.0,STARLINK-4559,PAYLOAD,2023-06-15 09:57:07,15.08837162,7.5e-05,53.2165,215.266,55.0004,305.1059,4.0074e-05,3.5e-06,0.0,0 STARLINK-4559,1 53574U 22101AZ  23166.41467108  .00000350  00000-0  40074-4 0  9996,2 53574  53.2165 215.2660 0000750  55.0004 305.1059 15.08837162 45740,6917.889,95.438,540.273,539.235,0.0
53574.0,STARLINK-4559,PAYLOAD,2023-06-16 09:47:54,15.08844872,6.09e-05,53.2159,210.8035,72.2847,287.8212,6.1602e-05,6.93e-06,0.0,0 STARLINK-4559,1 53574U 22101AZ  23167.40826486  .00000693  00000-0  61602-4 0  9994,2 53574  53.2159 210.8035 0000609  72.2847 287.8212 15.08844872 45898,6917.865,95.437,540.152,539.309,0.0
53574.0,STARLINK-4559,PAYLOAD,2023-06-16 19:20:13,15.08837597,6.2e-05,53.216,209.0195,69.5229,290.5829,7.0524e-05,8.35e-06,0.0,0 STARLINK-4559,1 53574U 22101AZ  23167.80570835  .00000835  00000-0  70524-4 0  9993,2 53574  53.2160 209.0195 0000620  69.5229 290.5829 15.08837597 45951,6917.888,95.438,540.182,539.324,0.0
53574.0,STARLINK-4559,PAYLOAD,2023-06-16 22:30:59,15.08835201,6.47e-05,53.2161,208.425,71.7066,288.3997,3.7143e-05,3.04e-06,0.0,0 STARLINK-4559,1 53574U 22101AZ  23167.93819115  .00000304  00000-0  37143-4 0  9995,2 53574  53.2161 208.4250 0000647  71.7066 288.3997 15.08835201 45973,6917.895,95.438,540.208,539.312,0.0
53574.0,STARLINK-4559,PAYLOAD,2023-06-17 09:38:41,15.08835759,6.57e-05,53.216,206.3433,71.1524,288.954,3.4775e-05,2.66e-06,0.0,0 STARLINK-4559,1 53574U 22101AZ  23168.40187206  .00000266  00000-0  34775-4 0  9992,2 53574  53.2160 206.3433 0000657  71.1524 288.9540 15.08835759 46043,6917.893,95.438,540.213,539.304,0.0
53574.0,STARLINK-4559,PAYLOAD,2023-06-17 19:11:00,15.08832948,6.27e-05,53.2163,204.5605,101.3897,258.7165,1.5507e-05,-4.1e-07,0.0,0 STARLINK-4559,1 53574U 22101AZ  23168.79931512 -.00000041  00000-0  15507-4 0  9995,2 53574  53.2163 204.5605 0000627 101.3897 258.7165 15.08832948 46105,6917.902,95.438,540.201,539.333,0.0
53574.0,STARLINK-4559,PAYLOAD,2023-06-18 09:29:28,15.08853528,5.63e-05,53.2163,201.8838,57.5843,302.5203,-0.00033767,-5.659e-05,0.0,0 STARLINK-4559,1 53574U 22101AZ  23169.39547324 -.00005659  00000-0 -33767-3 0  9994,2 53574  53.2163 201.8838 0000563  57.5843 302.5203 15.08853528 46192,6917.839,95.437,540.094,539.315,0.0
53574.0,STARLINK-4559,PAYLOAD,2023-06-18 19:01:48,15.08836625,6.64e-05,53.2163,200.0988,77.0694,283.0372,-1.0888e-05,-4.61e-06,0.0,0 STARLINK-4559,1 53574U 22101AZ  23169.79291725 -.00000461  00000-0 -10888-4 0  9995,2 53574  53.2163 200.0988 0000664  77.0694 283.0372 15.08836625 46258,6917.891,95.438,540.215,539.296,0.0
53574.0,STARLINK-4559,PAYLOAD,2023-06-19 10:55:39,15.08842028,6.32e-05,53.2164,197.125,79.2131,280.8932,2.9058e-05,1.75e-06,0.0,0 STARLINK-4559,1 53574U 22101AZ  23170.45531441  .00000175  00000-0  29058-4 0  9991,2 53574  53.2164 197.1250 0000632  79.2131 280.8932 15.08842028 46354,6917.874,95.437,540.176,539.302,0.0
